NORAD_CAT_ID,OBJECT_NAME,OBJECT_TYPE,EPOCH,MEAN_MOTION,ECCENTRICITY,INCLINATION,RA_OF_ASC_NODE,ARG_OF_PERICENTER,MEAN_ANOMALY,BSTAR,MEAN_MOTION_DOT,MEAN_MOTION_DDOT,TLE_LINE0,TLE_LINE1,TLE_LINE2,SEMIMAJOR_AXIS,PERIOD,APOGEE,PERIGEE,DECAYED
50178.0,STARLINK-3284,PAYLOAD,2023-06-17 22:10:37,15.08826103,7.97e-05,53.2176,39.1421,97.0957,263.0126,-0.00011642,-2.139e-05,0.0,0 STARLINK-3284,1 50178U 21125Y   23168.92404034 -.00002139  00000-0 -11642-3 0  9992,2 50178  53.2176  39.1421 0000797  97.0957 263.0126 15.08826103 86319,6917.923,95.438,540.339,539.237,0.0
50178.0,STARLINK-3284,PAYLOAD,2023-06-18 15:39:51,15.0883732,9.83e-05,53.2181,35.8704,97.1654,262.945,-2.4913e-05,-6.84e-06,0.0,0 STARLINK-3284,1 50178U 21125Y   23169.65267398 -.00000684  00000-0 -24913-4 0  9992,2 50178  53.2181  35.8704 0000983  97.1654 262.9450 15.08837320 85897,6917.889,95.438,540.434,539.074,0.0
50178.0,STARLINK-3284,PAYLOAD,2023-06-18 18:50:36,15.08842086,0.0001037,53.2183,35.276,96.9546,263.1565,2.2399e-05,6.9e-07,0.0,0 STARLINK-3284,1 50178U 21125Y   23169.78514993  .00000069  00000-0  22399-4 0  9993,2 50178  53.2183  35.2760 0001037  96.9546 263.1565 15.08842086 86440,6917.874,95.437,540.456,539.022,0.0
50178.0,STARLINK-3284,PAYLOAD,2023-06-19 01:12:08,15.08850578,9.21e-05,53.2181,34.0867,94.933,265.1767,6.1521e-05,6.92e-06,0.0,0 STARLINK-3284,1 50178U 21125Y   23170.05010338  .00000692  00000-0  61521-4 0  9991,2 50178  53.2181  34.0867 0000921  94.9330 265.1767 15.08850578 85959,6917.848,95.437,540.35,539.076,0.0
50178.0,STARLINK-3284,PAYLOAD,2023-06-19 07:33:42,15.08823013,8.75e-05,53.2181,32.8978,105.7318,254.3771,0.0003825,5.802e-05,0.0,0 STARLINK-3284,1 50178U 21125Y   23170.31507560  .00005802  00000-0  38250-3 0  9998,2 50178  53.2181  32.8978 0000875 105.7318 254.3771 15.08823013 85996,6917.932,95.439,540.403,539.192,0.0
50178.0,STARLINK-3284,PAYLOAD,2023-06-20 07:24:29,15.08836969,8.79e-05,53.2175,28.4381,100.5192,259.5899,0.00015366,2.158e-05,0.0,0 STARLINK-3284,1 50178U 21125Y   23171.30867616  .00002158  00000-0  15366-3 0  9993,2 50178  53.2175  28.4381 0000879 100.5192 259.5899 15.08836969 86673,6917.89,95.438,540.363,539.147,0.0
50178.0,STARLINK-3284,PAYLOAD,2023-06-20 15:21:25,15.08841671,8.73e-05,53.2178,26.951,101.5974,258.5116,2.5706e-05,1.21e-06,0.0,0 STARLINK-3284,1 50178U 21125Y   23171.63987666  .00000121  00000-0  25706-4 0  9995,2 50178  53.2178  26.9510 0000873 101.5974 258.5116 15.08841671 86190,6917.875,95.437,540.344,539.136,0.0
50178.0,STARLINK-3284,PAYLOAD,2023-06-20 20:07:34,15.0884651,8.8e-05,53.2179,26.0588,102.0536,258.0555,6.5139e-05,7.49e-06,0.0,0 STARLINK-3284,1 50178U 21125Y   23171.83859215  .00000749  00000-0  65139-4 0  9995,2 50178  53.2179  26.0588 0000880 102.0536 258.0555 15.08846510 86756,6917.86,95.437,540.334,539.117,0.0
50178.0,STARLINK-3284,PAYLOAD,2023-06-20 23:18:20,15.08847758,8.42e-05,53.2176,25.4644,99.1426,260.9662,7.8339e-05,9.6e-06,0.0,0 STARLINK-3284,1 50178U 21125Y   23171.97107063  .00000960  00000-0  78339-4 0  9998,2 50178  53.2176  25.4644 0000842  99.1426 260.9662 15.08847758 86241,6917.857,95.437,540.304,539.139,0.0
50178.0,STARLINK-3284,PAYLOAD,2023-06-21 18:22:58,15.08838474,8.57e-05,53.2173,21.8954,95.9784,264.1306,4.2245e-05,3.85e-06,0.0,0 STARLINK-3284,1 50178U 21125Y   23172.76595333  .00000385  00000-0  42245-4 0  9995,2 50178  53.2173  21.8954 0000857  95.9784 264.1306 15.08838474 86368,6917.885,95.438,540.343,539.157,0.0
50178.0,STARLINK-3284,PAYLOAD,2023-06-21 19:58:21,15.08844716,8.6e-05,53.2181,21.5978,92.5028,267.6063,5.3972e-05,5.71e-06,0.0,0 STARLINK-3284,1 50178U 21125Y   23172.83219278  .00000571  00000-0  53972-4 0  9990,2 50178  53.2181  21.5978 0000860  92.5028 267.6063 15.08844716 86902,6917.866,95.437,540.326,539.136,0.0
50178.0,STARLINK-3284,PAYLOAD,2023-06-22 19:49:08,15.08838445,9.44e-05,53.2177,17.1376,89.4601,270.6499,6.6148e-05,7.65e-06,0.0,0 STARLINK-3284,1 50178U 21125Y   23173.82579765  .00000765  00000-0  66148-4 0  9994,2 50178  53.2177  17.1376 0000944  89.4601 270.6499 15.08838445 86522,6917.885,95.438,540.403,539.097,0.0
50178.0,STARLINK-3284,PAYLOAD,2023-06-23 19:39:55,15.08850122,9.47e-05,53.2182,12.6767,93.4469,266.6631,0.00012036,1.629e-05,0.0,0 STARLINK-3284,1 50178U 21125Y   23174.81938974  .00001629  00000-0  12036-3 0  9991,2 50178  53.2182  12.6767 0000947  93.4469 266.6631 15.08850122 86677,6917.849,95.437,540.37,539.059,0.0
50178.0,STARLINK-3284,PAYLOAD,2023-06-24 06:47:37,15.08844004,9.05e-05,53.2168,10.5957,91.0599,269.0496,0.00010778,1.428e-05,0.0,0 STARLINK-3284,1 50178U 21125Y   23175.28307457  .00001428  00000-0  10778-3 0  9997,2 50178  53.2168  10.5957 0000905  91.0599 269.0496 15.08844004 86747,6917.868,95.437,540.359,539.107,0.0
50178.0,STARLINK-3284,PAYLOAD,2023-06-24 16:19:57,15.08834645,9.64e-05,53.2184,8.813,85.5278,274.5824,7.3788e-05,8.87e-06,0.0,0 STARLINK-3284,1 50178U 21125Y   23175.68052096  .00000887  00000-0  73788-4 0  9996,2 50178  53.2184   8.8130 0000964  85.5278 274.5824 15.08834645 86808,6917.897,95.438,540.429,539.095,0.0
50178.0,STARLINK-3284,PAYLOAD,2023-06-25 19:21:30,15.08841388,0.0001032,53.2184,3.7572,87.4462,272.6648,4.8868e-05,4.9e-06,0.0,0 STARLINK-3284,1 50178U 21125Y   23176.80659829  .00000490  00000-0  48868-4 0  9999,2 50178  53.2184   3.7572 0001032  87.4462 272.6648 15.08841388 86978,6917.876,95.437,540.455,539.027,0.0
50178.0,STARLINK-3284,PAYLOAD,2023-06-26 16:01:31,15.08835532,0.000106,53.2179,359.8918,79.8035,280.3077,7.3999e-05,8.9e-06,0.0,0 STARLINK-3284,1 50178U 21125Y   23177.66772351  .00000890  00000-0  73999-4 0  9997,2 50178  53.2179 359.8918 0001060  79.8035 280.3077 15.08835532 87105,6917.894,95.438,540.492,539.026,0.0
50178.0,STARLINK-3284,PAYLOAD,2023-06-27 19:03:04,15.08836661,9.83e-05,53.2185,354.8371,82.6795,277.4309,4.0389e-05,3.55e-06,0.0,0 STARLINK-3284,1 50178U 21125Y   23178.79380627  .00000355  00000-0  40389-4 0  9996,2 50178  53.2185 354.8371 0000983  82.6795 277.4309 15.08836661 87275,6917.891,95.438,540.436,539.076,0.0
50178.0,STARLINK-3284,PAYLOAD,2023-06-29 10:47:43,15.08838095,0.0001078,53.219,347.4027,92.9414,267.1701,6.6737e-05,7.74e-06,0.0,0 STARLINK-3284,1 50178U 21125Y   23180.44980607  .00000774  00000-0  66737-4 0  9995,2 50178  53.2190 347.4027 0001078  92.9414 267.1701 15.08838095 87528,6917.886,95.438,540.497,539.005,0.0
50178.0,STARLINK-3284,PAYLOAD,2023-06-30 17:00:02,15.08842209,9.31e-05,53.2181,341.752,95.6897,264.4201,8.2104e-05,1.019e-05,0.0,0 STARLINK-3284,1 50178U 21125Y   23181.70836120  .00001019  00000-0  82104-4 0  9994,2 50178  53.2181 341.7520 0000931  95.6897 264.4201 15.08842209 87713,6917.874,95.437,540.383,539.095,0.0
50178.0,STARLINK-3284,PAYLOAD,2023-07-01 04:07:44,15.0883741,9.03e-05,53.2176,339.6705,94.224,265.8856,8.8594e-06,-1.47e-06,0.0,0 STARLINK-3284,1 50178U 21125Y   23182.17204519 -.00000147  00000-0  88594-5 0  9999,2 50178  53.2176 339.6705 0000903  94.2240 265.8856 15.08837410 87780,6917.888,95.438,540.378,539.129,0.0
50178.0,STARLINK-3284,PAYLOAD,2023-07-02 10:20:04,15.08838996,0.0001036,53.2181,334.0202,86.7046,273.4065,4.5751e-05,4.4e-06,0.0,0 STARLINK-3284,1 50178U 21125Y   23183.43060499  .00000440  00000-0  45751-4 0  9998,2 50178  53.2181 334.0202 0001036  86.7046 273.4065 15.08838996 87973,6917.883,95.438,540.465,539.032,0.0
50178.0,STARLINK-3284,PAYLOAD,2023-07-02 19:52:22,15.08846308,0.0001152,53.2177,332.236,90.5175,269.5949,4.4468e-05,4.2e-06,0.0,0 STARLINK-3284,1 50178U 21125Y   23183.82803999  .00000420  00000-0  44468-4 0  9993,2 50178  53.2177 332.2360 0001152  90.5175 269.5949 15.08846308 88039,6917.861,95.437,540.523,538.929,0.0
50178.0,STARLINK-3284,PAYLOAD,2023-07-03 10:10:51,15.08837305,0.0001039,53.2174,329.5601,74.2924,285.8183,0.00011883,1.604e-05,0.0,0 STARLINK-3284,1 50178U 21125Y   23184.42420361  .00001604  00000-0  11883-3 0  9997,2 50178  53.2174 329.5601 0001039  74.2924 285.8183 15.08837305 88126,6917.889,95.438,540.472,539.035,0.0
50178.0,STARLINK-3284,PAYLOAD,2023-07-03 21:18:32,15.08846793,0.0001039,53.2176,327.4781,75.9061,284.2046,0.00015382,2.162e-05,0.0,0 STARLINK-3284,1 50178U 21125Y   23184.88787665  .00002162  00000-0  15382-3 0  9998,2 50178  53.2176 327.4781 0001039  75.9061 284.2046 15.08846793 88193,6917.86,95.437,540.443,539.006,0.0
50178.0,STARLINK-3284,PAYLOAD,2023-07-04 10:01:38,15.08832713,0.0001157,53.2168,325.0985,96.3537,263.7587,-4.3846e-05,-9.85e-06,0.0,0 STARLINK-3284,1 50178U 21125Y   23185.41781238 -.00000985  00000-0 -43846-4 0  9998,2 50178  53.2168 325.0985 0001157  96.3537 263.7587 15.08832713 88278,6917.903,95.438,540.568,538.967,0.0
50178.0,STARLINK-3284,PAYLOAD,2023-07-04 16:23:11,15.08840743,9.78e-05,53.2176,323.9104,84.3833,275.727,1.7768e-05,-5e-08,0.0,0 STARLINK-3284,1 50178U 21125Y   23185.68276686 -.00000005  00000-0  17768-4 0  9999,2 50178  53.2176 323.9104 0000978  84.3833 275.7270 15.08840743 88312,6917.878,95.438,540.42,539.067,0.0
50178.0,STARLINK-3284,PAYLOAD,2023-07-05 01:55:30,15.08834761,9.38e-05,53.2176,322.1262,81.9513,278.1585,1.4496e-05,-5.7e-07,0.0,0 STARLINK-3284,1 50178U 21125Y   23186.08021130 -.00000057  00000-0  14496-4 0  9998,2 50178  53.2176 322.1262 0000938  81.9513 278.1585 15.08834761 88377,6917.896,95.438,540.41,539.113,0.0
50178.0,STARLINK-3284,PAYLOAD,2023-07-06 17:40:08,15.08844922,9.96e-05,53.2183,314.694,92.4926,267.618,0.00016565,2.35e-05,0.0,0 STARLINK-3284,1 50178U 21125Y   23187.73620811  .00002350  00000-0  16565-3 0  9997,2 50178  53.2183 314.6940 0000996  92.4926 267.6180 15.08844922 88625,6917.865,95.437,540.419,539.041,0.0
50178.0,STARLINK-3284,PAYLOAD,2023-07-07 01:37:04,15.08841372,9.73e-05,53.2184,313.2071,92.1516,267.9587,0.00013771,1.905e-05,0.0,0 STARLINK-3284,1 50178U 21125Y   23188.06741142  .00001905  00000-0  13771-3 0  9996,2 50178  53.2184 313.2071 0000973  92.1516 267.9587 15.08841372 88678,6917.876,95.437,540.414,539.068,0.0
